INMARSAT 4-F2 (SOUTHPA*)
1 28899U 05044A   26087.55962523 -.00000276  00000+0  00000+0 0  9993
2 28899   4.9910  43.7951 0002935 337.4395 149.6921  1.00271063 74714
GSAT-8 (GAGAN/PRN 127)  
1 37605U 11022A   26087.55562675  .00000066  00000+0  00000+0 0  9991
2 37605   1.9233  82.7960 0006571 219.3316 138.9324  1.00273532 52401
LUCH 5A (SDCM/PRN 140)  
1 37951U 11074B   26087.29259301 -.00000063  00000+0  00000+0 0  9990
2 37951   8.5497  74.9826 0003252 270.7103 112.3109  1.00269714 52248
SES-5 (EGNOS/PRN 136)   
1 38652U 12036A   26087.36225583  .00000013  00000+0  00000+0 0  9995
2 38652   0.0634 304.1475 0002051  49.3865 327.6149  1.00267091 43641
GSAT-10 (GAGAN/PRN 128) 
1 38779U 12051B   26087.63700983 -.00000184  00000+0  00000+0 0  9994
2 38779   0.0112 194.2761 0005546 246.0643  58.0175  1.00270488 49295
LUCH 5B (SDCM/PRN 125)  
1 38977U 12061A   26087.18495256 -.00000150  00000+0  00000+0 0  9992
2 38977  10.3102  50.6673 0003259 223.1350 322.0215  1.00273331 48798
ASTRA 5B (EGNOS/PRN 123)
1 39617U 14011B   26087.54938673  .00000117  00000+0  00000+0 0  9998
2 39617   0.0883 299.4413 0003655  41.2408  66.5570  1.00269015 43850
LUCH 5V (SDCM/PRN 141)  
1 39727U 14023A   26087.49219256 -.00000284  00000+0  00000+0 0  9992
2 39727   4.9349  70.5298 0002457 302.4026  84.9031  1.00272193 43552
GSAT-15 (GAGAN/PRN 139) 
1 41028U 15065A   26087.55337514 -.00000277  00000+0  00000+0 0  9993
2 41028   0.0265 257.8354 0002116 137.4353  83.4042  1.00271857 37990
EUTELSAT 117 WEST B (W*)
1 41589U 16038B   26087.49975324 -.00000031  00000+0  00000+0 0  9994
2 41589   0.0184  34.5664 0000182  73.4450 140.8203  1.00271898 35859
SES-15 (WAAS/PRN 133)   
1 42709U 17026A   26087.51642039  .00000040  00000+0  00000+0 0  9993
2 42709   0.0364 334.5961 0000675  14.3583 253.7191  1.00270166  6625
QZS-2 (QZSS/PRN 194)    
1 42738U 17028A   26087.28583297 -.00000214  00000+0  00000+0 0  9995
2 42738  39.5542 244.3321 0743022 270.5468 274.0899  1.00255654  6815
QZS-3 (QZSS/PRN 199)    
1 42917U 17048A   26087.58586462 -.00000367  00000+0  00000+0 0  9995
2 42917   0.0536 161.2428 0002055 197.8723 164.8013  1.00274410 31457
QZS-4 (QZSS/PRN 195)    
1 42965U 17062A   26087.57096681 -.00000334  00000+0  00000+0 0  9996
2 42965  40.1569 344.5133 0748035 270.3627 277.2698  1.00273721 30995
BEIDOU-3 G1 (PRN 130)   
1 43683U 18085A   26087.57244014 -.00000296  00000+0  00000+0 0  9992
2 43683   2.8708  99.6208 0001542  23.5148  48.9036  1.00269473 27258
EUTELSAT 5 WEST B (EGN*)
1 44624U 19067A   26087.32985984 -.00000062  00000+0  00000+0 0  9991
2 44624   0.0662 354.0584 0003254  16.3147 289.1044  1.00271247 23626
BEIDOU-3 G2 (PRN 144)   
1 45344U 20017A   26087.56056676 -.00000158  00000+0  00000+0 0  9997
2 45344   2.7028  45.9972 0002552 321.7062 100.1045  1.00271961 22453
BEIDOU-3 G3 (PRN 143)   
1 45807U 20040A   26087.56663345 -.00000372  00000+0  00000+0 0  9992
2 45807   2.2495  67.1850 0004115 320.6142 112.7261  1.00272975 21268
GALAXY 30 (WAAS/PRN 135)
1 46114U 20056C   26087.52000659  .00000000  00000+0  00000+0 0  9997
2 46114   0.0233 174.0786 0002163 206.5221 227.5339  1.00270163 20484
QZS-1R (QZSS/PRN 196)   
1 49336U 21096A   26086.85682424 -.00000231  00000+0  00000+0 0  9999
2 49336  37.2951  80.7807 0749206 270.2290 277.9575  1.00282705 16198
QZS-6 (QZSS/PRN 200)    
1 62876U 25023A   26087.55337514 -.00000252  00000+0  00000+0 0  9995
2 62876   0.0516  69.0259 0002287 295.2437 111.4075  1.00270360  4153
